[{"OBJECT_NAME":"NPSAT1","OBJECT_ID":"2019-036B","EPOCH":"2026-03-09T08:03:28.323072","MEAN_MOTION":14.73510979,"ECCENTRICITY":0.00080689,"INCLINATION":23.9975,"RA_OF_ASC_NODE":147.5764,"ARG_OF_PERICENTER":159.0133,"MEAN_ANOMALY":201.0695,"EPHEMERIS_TYPE":0,"CLASSIFICATION_TYPE":"U","NORAD_CAT_ID":44340,"ELEMENT_SET_NO":999,"REV_AT_EPOCH":35774,"BSTAR":0.0011274615,"MEAN_MOTION_DOT":7.738e-5,"MEAN_MOTION_DDOT":0},{"OBJECT_NAME":"NOAA 17 DEB","OBJECT_ID":"2002-032CA","EPOCH":"2026-03-09T22:26:17.068992","MEAN_MOTION":14.75469425,"ECCENTRICITY":0.00078726,"INCLINATION":98.6946,"RA_OF_ASC_NODE":64.2388,"ARG_OF_PERICENTER":97.538,"MEAN_ANOMALY":262.6722,"EPHEMERIS_TYPE":0,"CLASSIFICATION_TYPE":"U","NORAD_CAT_ID":48741,"ELEMENT_SET_NO":999,"REV_AT_EPOCH":26067,"BSTAR":0.0040856207,"MEAN_MOTION_DOT":0.00027849,"MEAN_MOTION_DDOT":0}]
